{
  "type": "FeatureCollection",
  "features": [
    {
      "type": "Feature",
      "properties": {
        "norad_id": 66447,
        "name": "STARLINK-34851",
        "group": "last-30-days",
        "lat": -12.16809302369129,
        "lon": 46.243506577213395,
        "alt_km": 415.28215931282193,
        "timestamp": "2025-12-10T14:53:35.945661+00:00",
        "meta_object_name": "STARLINK-34851",
        "meta_object_id": "2025-259AB",
        "meta_epoch": "2025-12-10T05:41:44.121408",
        "meta_mean_motion": 15.50651186,
        "meta_eccentricity": 0.00013213,
        "meta_inclination": 42.9984,
        "meta_ra_of_asc_node": 61.8661,
        "meta_arg_of_pericenter": 284.8329,
        "meta_mean_anomaly": 75.2384,
        "meta_ephemeris_type": 0,
        "meta_classification_type": "U",
        "meta_norad_cat_id": 66447,
        "meta_element_set_no": 999,
        "meta_rev_at_epoch": 567,
        "meta_bstar": 0.0017574292,
        "meta_mean_motion_dot": 0.00104412,
        "meta_mean_motion_ddot": 0,
        "tle_line1": "1 66447U 25259AB  25344.23731622  .00104412  00000+0  17574-2 0  9991",
        "tle_line2": "2 66447  42.9984  61.8661 0001321 284.8329  75.2384 15.50651186  5671"
      },
      "geometry": {
        "type": "Point",
        "coordinates": [
          46.243506577213395,
          -12.16809302369129
        ]
      }
    },
    {
      "type": "Feature",
      "properties": {
        "norad_id": 66448,
        "name": "STARLINK-35355",
        "group": "last-30-days",
        "lat": -10.85138091370882,
        "lon": 47.74710988063969,
        "alt_km": 415.1425377164496,
        "timestamp": "2025-12-10T14:53:35.945670+00:00",
        "meta_object_name": "STARLINK-35355",
        "meta_object_id": "2025-259AC",
        "meta_epoch": "2025-12-10T05:41:14.394624",
        "meta_mean_motion": 15.50671091,
        "meta_eccentricity": 0.00021654,
        "meta_inclination": 43.0012,
        "meta_ra_of_asc_node": 61.8623,
        "meta_arg_of_pericenter": 264.5818,
        "meta_mean_anomaly": 95.4795,
        "meta_ephemeris_type": 0,
        "meta_classification_type": "U",
        "meta_norad_cat_id": 66448,
        "meta_element_set_no": 999,
        "meta_rev_at_epoch": 578,
        "meta_bstar": 0.0026820757,
        "meta_mean_motion_dot": 0.00160806,
        "meta_mean_motion_ddot": 0,
        "tle_line1": "1 66448U 25259AC  25344.23697216  .00160806  00000+0  26821-2 0  9996",
        "tle_line2": "2 66448  43.0012  61.8623 0002165 264.5818  95.4795 15.50671091  5788"
      },
      "geometry": {
        "type": "Point",
        "coordinates": [
          47.74710988063969,
          -10.85138091370882
        ]
      }
    },
    {
      "type": "Feature",
      "properties": {
        "norad_id": 66449,
        "name": "STARLINK-34720",
        "group": "last-30-days",
        "lat": -9.448705004360857,
        "lon": 49.32161448964495,
        "alt_km": 414.97572918779315,
        "timestamp": "2025-12-10T14:53:35.945679+00:00",
        "meta_object_name": "STARLINK-34720",
        "meta_object_id": "2025-259AD",
        "meta_epoch": "2025-12-09T14:13:10.265952",
        "meta_mean_motion": 15.5058504,
        "meta_eccentricity": 0.0001466,
        "meta_inclination": 42.9996,
        "meta_ra_of_asc_node": 65.6255,
        "meta_arg_of_pericenter": 272.035,
        "meta_mean_anomaly": 88.0342,
        "meta_ephemeris_type": 0,
        "meta_classification_type": "U",
        "meta_norad_cat_id": 66449,
        "meta_element_set_no": 999,
        "meta_rev_at_epoch": 557,
        "meta_bstar": 0.0016251,
        "meta_mean_motion_dot": 0.00096197,
        "meta_mean_motion_ddot": 0,
        "tle_line1": "1 66449U 25259AD  25343.59247993  .00096197  00000+0  16251-2 0  9995",
        "tle_line2": "2 66449  42.9996  65.6255 0001466 272.0350  88.0342 15.50585040  5570"
      },
      "geometry": {
        "type": "Point",
        "coordinates": [
          49.32161448964495,
          -9.448705004360857
        ]
      }
    },
    {
      "type": "Feature",
      "properties": {
        "norad_id": 66450,
        "name": "STARLINK-35334",
        "group": "last-30-days",
        "lat": -8.310120546066194,
        "lon": 50.58717549383644,
        "alt_km": 415.26805896694805,
        "timestamp": "2025-12-10T14:53:35.945688+00:00",
        "meta_object_name": "STARLINK-35334",
        "meta_object_id": "2025-259AE",
        "meta_epoch": "2025-12-10T05:40:15.198528",
        "meta_mean_motion": 15.50658961,
        "meta_eccentricity": 2.236e-05,
        "meta_inclination": 42.9962,
        "meta_ra_of_asc_node": 61.8553,
        "meta_arg_of_pericenter": 280.5315,
        "meta_mean_anomaly": 79.5519,
        "meta_ephemeris_type": 0,
        "meta_classification_type": "U",
        "meta_norad_cat_id": 66450,
        "meta_element_set_no": 999,
        "meta_rev_at_epoch": 578,
        "meta_bstar": 0.0019415774,
        "meta_mean_motion_dot": 0.00115588,
        "meta_mean_motion_ddot": 0,
        "tle_line1": "1 66450U 25259AE  25344.23628702  .00115588  00000+0  19416-2 0  9992",
        "tle_line2": "2 66450  42.9962  61.8553 0000223 280.5315  79.5519 15.50658961  5786"
      },
      "geometry": {
        "type": "Point",
        "coordinates": [
          50.58717549383644,
          -8.310120546066194
        ]
      }
    },
    {
      "type": "Feature",
      "properties": {
        "norad_id": 66454,
        "name": "VIASAT-3 F2",
        "group": "last-30-days",
        "lat": -5.18185545984852,
        "lon": -138.9973718610187,
        "alt_km": 18099.946018148083,
        "timestamp": "2025-12-10T14:53:35.945701+00:00",
        "meta_object_name": "VIASAT-3 F2",
        "meta_object_id": "2025-261A",
        "meta_epoch": "2025-12-08T12:11:15.383616",
        "meta_mean_motion": 2.19142646,
        "meta_eccentricity": 0.22792154,
        "meta_inclination": 5.457,
        "meta_ra_of_asc_node": 292.6501,
        "meta_arg_of_pericenter": 190.5469,
        "meta_mean_anomaly": 204.5187,
        "meta_ephemeris_type": 0,
        "meta_classification_type": "U",
        "meta_norad_cat_id": 66454,
        "meta_element_set_no": 999,
        "meta_rev_at_epoch": 55,
        "meta_bstar": 0,
        "meta_mean_motion_dot": -8.1e-07,
        "meta_mean_motion_ddot": 0,
        "tle_line1": "1 66454U 25261A   25342.50781694 -.00000081  00000+0  00000+0 0  9995",
        "tle_line2": "2 66454   5.4570 292.6501 2279215 190.5469 204.5187  2.19142646   557"
      },
      "geometry": {
        "type": "Point",
        "coordinates": [
          -138.9973718610187,
          -5.18185545984852
        ]
      }
    },
    {
      "type": "Feature",
      "properties": {
        "norad_id": 66455,
        "name": "ATLAS 5 CENTAUR R/B",
        "group": "last-30-days",
        "lat": 2.202651827489004,
        "lon": -47.24218493955763,
        "alt_km": 23352.772347242488,
        "timestamp": "2025-12-10T14:53:35.945712+00:00",
        "meta_object_name": "ATLAS 5 CENTAUR R/B",
        "meta_object_id": "2025-261B",
        "meta_epoch": "2025-12-10T06:41:13.580160",
        "meta_mean_motion": 2.28259697,
        "meta_eccentricity": 0.23295009,
        "meta_inclination": 6.1488,
        "meta_ra_of_asc_node": 291.8627,
        "meta_arg_of_pericenter": 185.9895,
        "meta_mean_anomaly": 282.35,
        "meta_ephemeris_type": 0,
        "meta_classification_type": "U",
        "meta_norad_cat_id": 66455,
        "meta_element_set_no": 999,
        "meta_rev_at_epoch": 59,
        "meta_bstar": 0,
        "meta_mean_motion_dot": -8e-07,
        "meta_mean_motion_ddot": 0,
        "tle_line1": "1 66455U 25261B   25344.27862940 -.00000080  00000+0  00000+0 0  9995",
        "tle_line2": "2 66455   6.1488 291.8627 2329500 185.9895 282.3500  2.28259697   590"
      },
      "geometry": {
        "type": "Point",
        "coordinates": [
          -47.24218493955763,
          2.202651827489004
        ]
      }
    },
    {
      "type": "Feature",
      "properties": {
        "norad_id": 66456,
        "name": "STARLINK-35643",
        "group": "last-30-days",
        "lat": -42.59585960766838,
        "lon": -15.55127891260383,
        "alt_km": 446.6525279610287,
        "timestamp": "2025-12-10T14:53:35.945722+00:00",
        "meta_object_name": "STARLINK-35643",
        "meta_object_id": "2025-262A",
        "meta_epoch": "2025-12-10T06:00:02.000160",
        "meta_mean_motion": 15.40614679,
        "meta_eccentricity": 0.0001185,
        "meta_inclination": 43,
        "meta_ra_of_asc_node": 85.9569,
        "meta_arg_of_pericenter": 276.7564,
        "meta_mean_anomaly": 88.8099,
        "meta_ephemeris_type": 0,
        "meta_classification_type": "U",
        "meta_norad_cat_id": 66456,
        "meta_element_set_no": 999,
        "meta_rev_at_epoch": 523,
        "meta_bstar": 0.0024712127,
        "meta_mean_motion_dot": 0.00104048,
        "meta_mean_motion_ddot": 0,
        "tle_line1": "1 66456U 25262A   25344.25002315  .00104048  00000+0  24712-2 0  9994",
        "tle_line2": "2 66456  43.0000  85.9569 0001185 276.7564  88.8099 15.40614679  5235"
      },
      "geometry": {
        "type": "Point",
        "coordinates": [
          -15.55127891260383,
          -42.59585960766838
        ]
      }
    }
  ]
}